GLOBALSTAR M063 [+]     
1 26081U 00008A   24052.90999056 -.00000104  00000+0 -31632-3 0  9999
2 26081  51.9961 299.0652 0005265 105.9061 336.2973 11.86151018100469
GLOBALSTAR M062 [-]     
1 26082U 00008B   24053.19373888 -.00000055  00000+0  30827-3 0  9990
2 26082  51.9847  70.1941 0007377 164.4640 271.7436 12.43428944 99284
GLOBALSTAR M060 [-]     
1 26083U 00008C   24053.13111067 -.00000100  00000+0 -93805-4 0  9992
2 26083  52.0042 322.3343 0002717 225.5985 281.9397 12.17627932 93930
GLOBALSTAR M064 [-]     
1 26084U 00008D   24052.92231290 -.00000103  00000+0 -28019-3 0  9997
2 26084  52.0045  43.5308 0001427 206.5428 153.5332 11.88515282109870
GLOBALSTAR M065 [+]     
1 31571U 07020A   24052.84631411 -.00000055  00000+0  27035-3 0  9997
2 31571  51.9870 251.2584 0009757 325.1464 138.5036 12.61963036772637
GLOBALSTAR M069 [+]     
1 31573U 07020C   24053.20001021 -.00000100  00000+0  21978-4 0  9990
2 31573  51.9930 206.1562 0001646 108.5509  62.6674 12.62256977773730
GLOBALSTAR M072 [+]     
1 31574U 07020D   24052.85854295 -.00000055  00000+0  27064-3 0  9990
2 31574  52.0091 303.0317 0001079  56.6427  21.9869 12.62267926772030
GLOBALSTAR M071 [P]     
1 31576U 07020F   24052.71662589 -.00000095  00000+0  47934-4 0  9993
2 31576  52.0044 212.7024 0002044 115.9600 257.3770 12.62267623434930
